{"spkid": "20007341", "covariance": {"epoch": "2457699.5", "labels": ["e", "q", "tp", "node", "peri", "i", "A2"], "elements": [{"name": "e", "sigma": 2.13527327616524e-09, "units": null, "title": "eccentricity", "value": ".5064801445619026", "label": "e"}, {"sigma": 3.90418823611681e-09, "name": "q", "value": ".9091080356768534", "title": "perihelion distance", "units": "au", "label": "q"}, {"label": "tp", "sigma": 1.79106378107368e-06, "name": "tp", "units": "TDB", "title": "time of perihelion passage", "value": "2457765.720881012426"}, {"sigma": 1.33813162890125e-05, "name": "om", "title": "longitude of the ascending node", "value": "294.8655733577961", "units": "deg", "label": "node"}, {"name": "w", "sigma": 1.26053990247163e-05, "units": "deg", "title": "argument of perihelion", "value": "173.3709438398366", "label": "peri"}, {"label": "i", "units": "deg", "title": "inclination", "value": "5.418380020456152", "name": "i", "sigma": 1.37469389329805e-06}], "data": [["4.559391963905443E-18", "-8.332997575124386E-18", "-2.34074336416021E-15", "4.618059074400954E-15", "-7.244987341214255E-15", "-2.789791260115392E-16", "1.15130424258433E-24"], ["-8.332997575124386E-18", "1.524268578303288E-17", "4.30679671269606E-15", "-7.382922540079894E-15", "1.221668477353217E-14", "4.854801747856368E-16", "-1.927592105571733E-24"], ["-2.34074336416021E-15", "4.30679671269606E-15", "3.207909467873956E-12", "8.068332319182089E-12", "-3.878934707714196E-12", "9.674607940874159E-14", "1.170763185443433E-22"], ["4.618059074400954E-15", "-7.382922540079894E-15", "8.068332319182089E-12", "1.790596256265901E-10", "-1.661865929724426E-10", "-1.650030461322257E-12", "2.030741223095227E-20"], ["-7.244987341214255E-15", "1.221668477353217E-14", "-3.878934707714196E-12", "-1.661865929724426E-10", "1.588960845723184E-10", "1.764396622428194E-12", "-1.99739625360637E-20"], ["-2.789791260115392E-16", "4.854801747856368E-16", "9.674607940874159E-14", "-1.650030461322257E-12", "1.764396622428194E-12", "1.889783300270949E-12", "-9.260214295593982E-22"], ["1.15130424258433E-24", "-1.927592105571733E-24", "1.170763185443433E-22", "2.030741223095227E-20", "-1.99739625360637E-20", "-9.260214295593982E-22", "3.21838781048849E-30"]]}, "elements": [{"label": "e", "sigma": "2.0662E-9", "name": "e", "units": null, "title": "eccentricity", "value": ".5061513700409449"}, {"name": "a", "sigma": "4.4683E-10", "title": "semi-major axis", "value": "1.841520033920787", "units": "au", "label": "a"}, {"label": "q", "sigma": "3.75E-9", "name": "q", "title": "perihelion distance", "value": ".9094321457939332", "units": "au"}, {"sigma": "1.3729E-6", "name": "i", "units": "deg", "value": "5.409870599121714", "title": "inclination; angle with respect to x-y ecliptic plane", "label": "i"}, {"name": "om", "sigma": "1.3411E-5", "value": "294.7229779449145", "title": "longitude of the ascending node", "units": "deg", "label": "node"}, {"label": "peri", "units": "deg", "title": "argument of perihelion", "value": "173.5203642827007", "name": "w", "sigma": "1.2646E-5"}, {"units": "deg", "title": "mean anomaly", "value": "274.4579642818163", "name": "ma", "sigma": "7.392E-7", "label": "M"}, {"name": "tp", "sigma": "1.8953E-6", "title": "time of perihelion passage", "value": "2461417.390324886871", "units": "TDB", "label": "tp"}, {"name": "per", "sigma": "3.3222E-7", "units": "d", "title": "sidereal orbital period", "value": "912.7736592160136", "label": "period"}, {"label": "n", "value": ".3944022665040597", "title": "mean motion", "units": "deg/d", "name": "n", "sigma": "1.4355E-10"}, {"value": "2.77360792204764", "title": "aphelion distance", "units": "au", "sigma": "6.73E-10", "name": "ad", "label": "Q"}], "epoch": "2461200.5"}